{"fetched_at":"2026-03-29T16:36:15Z","count":15609,"tles":[{"name":"STARLINK-34853","line1":"1 65892U 25224L   26087.81773431  .00022707  00000+0  77657-3 0  9994","line2":"2 65892  53.1584 282.4540 0001354  73.9335 286.1814 15.30195180 27738","category":"Starlink"}]}