{
  "norad_id": 65892,
  "name": "STARLINK-34853",
  "history": [
    {
      "epoch": "2026-03-28T19:37:32.244384Z",
      "apogee_km": 476.15774959544706,
      "perigee_km": 474.30117262113345,
      "latitude_deg": -6.291941157458007e-05,
      "longitude_deg": 161.83686991065196,
      "height_km": 475.87042671411007,
      "semi_major_axis_km": 6853.36646110829,
      "eccentricity": 0.00013545,
      "inclination_deg": 53.1584,
      "raan_deg": 282.454,
      "arg_perigee_deg": 73.9335,
      "mean_anomaly_deg": 286.1814,
      "mean_motion_rev_day": 15.3019518
    }
  ]
}